OBJECT_NAME,OBJECT_ID,EPOCH,MEAN_MOTION,ECCENTRICITY,INCLINATION,RA_OF_ASC_NODE,ARG_OF_PERICENTER,MEAN_ANOMALY,EPHEMERIS_TYPE,CLASSIFICATION_TYPE,NORAD_CAT_ID,ELEMENT_SET_NO,REV_AT_EPOCH,BSTAR,MEAN_MOTION_DOT,MEAN_MOTION_DDOT
SL-12 R/B(2),1985-042D,2026-06-08T00:56:35.551968,14.22004337,.0035792,71.1085,256.8429,341.7101,191.6683,0,U,15772,999,12723,.52964E-4,.7E-6,0
SL-16 R/B,1985-097B,2026-06-08T04:19:48.294048,14.16612393,.0005617,71.0038,310.0400,129.4564,42.7563,0,U,16182,999,10004,-.13207E-5,-.5E-6,0
COSMOS 1743,1986-034A,2026-06-07T22:45:41.106816,15.66116987,.0003536,82.5286,338.5500,315.6108,44.4868,0,U,16719,999,19434,.46857E-3,.4825E-3,0
SL-14 R/B,1986-046B,2026-06-08T01:27:02.696832,14.85665172,.002165,82.4817,354.8006,290.7360,69.1536,0,U,16792,999,13982,.43718E-4,.404E-5,0
SL-14 R/B,1986-055B,2026-06-08T03:07:20.908704,14.85717218,.0019812,82.5211,41.6483,36.7617,76.3618,0,U,16882,999,13279,.48768E-4,.449E-5,0
AJISAI (EGS),1986-061A,2026-06-08T03:33:37.475424,12.44516707,.0011274,50.0060,175.1902,157.6718,304.2615,0,U,16908,999,47926,.91218E-5,-.96E-6,0
SL-14 R/B,1987-024B,2026-06-08T01:27:54.137664,14.86207476,.0017334,82.5284,7.8295,325.6155,34.3938,0,U,17567,999,10155,.45174E-4,.422E-5,0
COSMOS 1833,1987-027A,2026-06-08T04:31:49.622592,14.13043216,.0022579,70.9157,135.7830,70.0518,290.3032,0,U,17589,999,2310,.19153E-3,.31E-5,0
SL-14 R/B,1987-038B,2026-06-08T04:04:30.150624,14.85440081,.0018158,82.5015,211.5659,222.1416,137.8405,0,U,17912,999,9266,.38217E-4,.354E-5,0
COSMOS 1844,1987-041A,2026-06-08T03:02:06.455040,14.14569915,.0033256,70.8984,203.4193,248.6181,111.1391,0,U,17973,999,1637,-.43385E-4,-.132E-5,0
SL-14 R/B,1987-055B,2026-06-07T23:54:33.713856,14.85704817,.0022098,82.4996,263.8927,76.2131,284.1542,0,U,18153,999,8334,.51669E-4,.475E-5,0
COSMOS 1867,1987-060A,2026-06-08T01:13:52.573152,14.31514869,.0016321,65.0116,53.6444,282.0532,77.8723,0,U,18187,999,3287,.28078E-4,-.25E-6,0
SL-14 R/B,1988-001B,2026-06-07T22:19:32.469024,14.85603059,.0016687,82.5124,110.4819,302.9570,57.0041,0,U,18749,999,5542,.55082E-4,.501E-5,0
SL-16 R/B,1988-039B,2026-06-07T23:03:31.353120,14.19629034,.0022736,71.0148,237.6673,206.7586,153.2368,0,U,19120,999,97119,.81753E-4,.125E-5,0
COSMOS 1953,1988-050A,2026-06-08T02:58:01.631136,15.29851465,.0011351,82.5076,67.1727,154.5664,205.6137,0,U,19210,999,5160,.26765E-3,.7783E-4,0
SL-8 R/B,1988-053B,2026-06-08T04:44:50.745120,14.38964326,.0019225,74.0478,305.6279,104.1970,68.6400,0,U,19257,999,98961,.92624E-4,.26E-5,0
COSMOS 1975,1988-093A,2026-06-08T02:59:25.812384,15.29211307,.0010565,82.5200,26.8176,203.4179,156.6582,0,U,19573,999,3322,.27799E-3,.7923E-4,0
SL-14 R/B,1988-093B,2026-06-08T04:50:11.588064,14.85734946,.0022189,82.5305,317.0816,98.1209,74.3909,0,U,19574,999,1445,.52368E-4,.481E-5,0
SL-16 R/B,1988-102B,2026-06-07T21:26:31.399008,14.16166746,.0016113,71.0005,321.6947,238.2206,121.7348,0,U,19650,999,93966,.46148E-6,-.47E-6,0
SL-14 R/B,1989-080C,2026-06-07T23:06:20.424960,12.50564849,.1229278,82.5919,115.2334,338.5079,16.8358,0,U,20262,999,67143,.14589E-3,.488E-5,0
DELTA 1 R/B,1989-089B,2026-06-08T02:45:20.429856,14.50725568,.0068454,97.0641,352.1247,195.6386,164.2699,0,U,20323,999,90884,.10167E-3,.376E-5,0
DELTA 2 R/B(1),1990-008B,2026-06-08T02:04:37.871616,15.67415827,.0067347,35.6007,296.4795,27.7476,332.6833,0,U,20453,999,94027,.65682E-3,.84361E-3,0
COSMOS 2058,1990-010A,2026-06-07T22:28:28.008192,15.11952217,.0010346,82.4665,318.4791,31.6545,328.5305,0,U,20465,999,95587,.21699E-3,.3752E-4,0
SL-14 R/B,1990-010B,2026-06-08T03:07:54.263424,14.83640791,.0019896,82.5017,182.4504,6.5086,353.6384,0,U,20466,999,94189,.44953E-4,.396E-5,0
